[{"OBJECT_NAME":"STARLINK-32595","OBJECT_ID":"2024-216F","EPOCH":"2026-03-09T23:00:42.687360","MEAN_MOTION":15.27582743,"ECCENTRICITY":0.00016439,"INCLINATION":42.9992,"RA_OF_ASC_NODE":261.9959,"ARG_OF_PERICENTER":270.9756,"MEAN_ANOMALY":89.0908,"EPHEMERIS_TYPE":0,"CLASSIFICATION_TYPE":"U","NORAD_CAT_ID":62037,"ELEMENT_SET_NO":999,"REV_AT_EPOCH":7384,"BSTAR":0.00073115706,"MEAN_MOTION_DOT":0.00019914,"MEAN_MOTION_DDOT":0},{"OBJECT_NAME":"FLOCK 4G-25","OBJECT_ID":"2025-009AP","EPOCH":"2026-03-09T17:53:50.680608","MEAN_MOTION":15.27424196,"ECCENTRICITY":8.276e-5,"INCLINATION":97.4049,"RA_OF_ASC_NODE":151.4141,"ARG_OF_PERICENTER":316.3151,"MEAN_ANOMALY":43.8023,"EPHEMERIS_TYPE":0,"CLASSIFICATION_TYPE":"U","NORAD_CAT_ID":62646,"ELEMENT_SET_NO":999,"REV_AT_EPOCH":6373,"BSTAR":0.00038902475,"MEAN_MOTION_DOT":0.00010373,"MEAN_MOTION_DDOT":0}]
